[
    {
        "Altitude(m)": 607886.6977544458,
        "Argument of Periapsis(deg)": 0.0,
        "Eccentricity": 0.0,
        "Inclination(deg)": 60.0,
        "Latitude(deg)": 40.99846073468557,
        "Longitude(deg)": -165.02696358520413,
        "Mean Anomaly(deg)": 49.09089999999999,
        "RAAN(deg)": 265.0,
        "Satellite Name": "Test1 1169",
        "Satellite Number": 1169,
        "Semi-Major Axis(m)": 6980739.136638005,
        "Time(s)": 0
    },
    {
        "Altitude(m)": 607987.611595167,
        "Argument of Periapsis(deg)": 0.00010418945913296404,
        "Eccentricity": 0.0,
        "Inclination(deg)": 60.0,
        "Latitude(deg)": 41.46355022878267,
        "Longitude(deg)": -164.52273464491384,
        "Mean Anomaly(deg)": 49.711006145461795,
        "RAAN(deg)": 264.99957995086027,
        "Satellite Name": "Test1 1169",
        "Satellite Number": 1169,
        "Semi-Major Axis(m)": 6980739.136638005,
        "Time(s)": 10
    }
]